[
    {
        "Altitude(m)": 562976.337161865,
        "Argument of Periapsis(deg)": 0.013245982221427002,
        "Eccentricity": 0.0,
        "Inclination(deg)": 53.0,
        "Latitude(deg)": -31.231800270297345,
        "Longitude(deg)": 175.4523154047315,
        "Mean Anomaly(deg)": 220.1831857351552,
        "RAAN(deg)": 69.98028673705603,
        "Satellite Name": "Starlink Shell 1 320",
        "Satellite Number": 320,
        "Semi-Major Axis(m)": 6931778.249405717,
        "Time(s)": 380
    },
    {
        "Altitude(m)": 563151.6454770294,
        "Argument of Periapsis(deg)": 0.013594560700938237,
        "Eccentricity": 0.0,
        "Inclination(deg)": 53.0,
        "Latitude(deg)": -31.677603964250412,
        "Longitude(deg)": 175.92663264139208,
        "Mean Anomaly(deg)": 220.81001693871193,
        "RAAN(deg)": 69.97976796697856,
        "Satellite Name": "Starlink Shell 1 320",
        "Satellite Number": 320,
        "Semi-Major Axis(m)": 6931778.249405717,
        "Time(s)": 390
    },
    {
        "Altitude(m)": 563326.8701996924,
        "Argument of Periapsis(deg)": 0.013943139180449475,
        "Eccentricity": 0.0,
        "Inclination(deg)": 53.0,
        "Latitude(deg)": -32.12126032174054,
        "Longitude(deg)": 176.4058688899447,
        "Mean Anomaly(deg)": 221.43684814226856,
        "RAAN(deg)": 69.9792491969011,
        "Satellite Name": "Starlink Shell 1 320",
        "Satellite Number": 320,
        "Semi-Major Axis(m)": 6931778.249405717,
        "Time(s)": 400
    },
    {
        "Altitude(m)": 563501.9450821619,
        "Argument of Periapsis(deg)": 0.014291717659960712,
        "Eccentricity": 0.0,
        "Inclination(deg)": 53.0,
        "Latitude(deg)": -32.562712665957534,
        "Longitude(deg)": 176.89013397833313,
        "Mean Anomaly(deg)": 222.06367934582534,
        "RAAN(deg)": 69.97873042682362,
        "Satellite Name": "Starlink Shell 1 320",
        "Satellite Number": 320,
        "Semi-Major Axis(m)": 6931778.249405717,
        "Time(s)": 410
    },
    {
        "Altitude(m)": 563676.803797472,
        "Argument of Periapsis(deg)": 0.014640296139471948,
        "Eccentricity": 0.0,
        "Inclination(deg)": 53.0,
        "Latitude(deg)": -33.001903019430834,
        "Longitude(deg)": 177.37953838002926,
        "Mean Anomaly(deg)": 222.690510549382,
        "RAAN(deg)": 69.97821165674614,
        "Satellite Name": "Starlink Shell 1 320",
        "Satellite Number": 320,
        "Semi-Major Axis(m)": 6931778.249405717,
        "Time(s)": 420
    },
    {
        "Altitude(m)": 563851.3799690921,
        "Argument of Periapsis(deg)": 0.014988874618983185,
        "Eccentricity": 0.0,
        "Inclination(deg)": 53.0,
        "Latitude(deg)": -33.438772071636045,
        "Longitude(deg)": 177.8741936777578,
        "Mean Anomaly(deg)": 223.31734175293872,
        "RAAN(deg)": 69.97769288666868,
        "Satellite Name": "Starlink Shell 1 320",
        "Satellite Number": 320,
        "Semi-Major Axis(m)": 6931778.249405717,
        "Time(s)": 430
    },
    {
        "Altitude(m)": 564025.6072006235,
        "Argument of Periapsis(deg)": 0.015337453098494424,
        "Eccentricity": 0.0,
        "Inclination(deg)": 53.0,
        "Latitude(deg)": -33.87325914656512,
        "Longitude(deg)": 178.37421302108473,
        "Mean Anomaly(deg)": 223.94417295649544,
        "RAAN(deg)": 69.9771741165912,
        "Satellite Name": "Starlink Shell 1 320",
        "Satellite Number": 320,
        "Semi-Major Axis(m)": 6931778.249405717,
        "Time(s)": 440
    },
    {
        "Altitude(m)": 564199.4191055049,
        "Argument of Periapsis(deg)": 0.01568603157800566,
        "Eccentricity": 0.0,
        "Inclination(deg)": 53.0,
        "Latitude(deg)": -34.30530217033426,
        "Longitude(deg)": 178.87971006456976,
        "Mean Anomaly(deg)": 224.57100416005218,
        "RAAN(deg)": 69.97665534651372,
        "Satellite Name": "Starlink Shell 1 320",
        "Satellite Number": 320,
        "Semi-Major Axis(m)": 6931778.249405717,
        "Time(s)": 450
    },
    {
        "Altitude(m)": 564372.7493367016,
        "Argument of Periapsis(deg)": 0.0160346100575169,
        "Eccentricity": 0.0,
        "Inclination(deg)": 53.0,
        "Latitude(deg)": -34.73483763891767,
        "Longitude(deg)": 179.39079941177727,
        "Mean Anomaly(deg)": 225.1978353636089,
        "RAAN(deg)": 69.97613657643626,
        "Satellite Name": "Starlink Shell 1 320",
        "Satellite Number": 320,
        "Semi-Major Axis(m)": 6931778.249405717,
        "Time(s)": 460
    },
    {
        "Altitude(m)": 564545.5316163504,
        "Argument of Periapsis(deg)": 0.016383188537028134,
        "Eccentricity": 0.0,
        "Inclination(deg)": 53.0,
        "Latitude(deg)": -35.161800586096845,
        "Longitude(deg)": 179.90759705180346,
        "Mean Anomaly(deg)": 225.8246665671656,
        "RAAN(deg)": 69.97561780635877,
        "Satellite Name": "Starlink Shell 1 320",
        "Satellite Number": 320,
        "Semi-Major Axis(m)": 6931778.249405717,
        "Time(s)": 470
    },
    {
        "Altitude(m)": 564717.6997653904,
        "Argument of Periapsis(deg)": 0.01673176701653937,
        "Eccentricity": 0.0,
        "Inclination(deg)": 53.0,
        "Latitude(deg)": -35.58612455172181,
        "Longitude(deg)": -179.56978072504265,
        "Mean Anomaly(deg)": 226.4514977707223,
        "RAAN(deg)": 69.9750990362813,
        "Satellite Name": "Starlink Shell 1 320",
        "Satellite Number": 320,
        "Semi-Major Axis(m)": 6931778.249405717,
        "Time(s)": 480
    },
    {
        "Altitude(m)": 564889.1877330824,
        "Argument of Periapsis(deg)": 0.017080345496050607,
        "Eccentricity": 0.0,
        "Inclination(deg)": 53.0,
        "Latitude(deg)": -36.00774155040196,
        "Longitude(deg)": -179.04121690716497,
        "Mean Anomaly(deg)": 227.07832897427903,
        "RAAN(deg)": 69.97458026620383,
        "Satellite Name": "Starlink Shell 1 320",
        "Satellite Number": 320,
        "Semi-Major Axis(m)": 6931778.249405717,
        "Time(s)": 490
    },
    {
        "Altitude(m)": 565059.9296265254,
        "Argument of Periapsis(deg)": 0.017428923975561842,
        "Eccentricity": 0.0,
        "Inclination(deg)": 53.0,
        "Latitude(deg)": -36.42658204074261,
        "Longitude(deg)": -178.50659335061238,
        "Mean Anomaly(deg)": 227.70516017783572,
        "RAAN(deg)": 69.97406149612635,
        "Satellite Name": "Starlink Shell 1 320",
        "Satellite Number": 320,
        "Semi-Major Axis(m)": 6931778.249405717,
        "Time(s)": 500
    },
    {
        "Altitude(m)": 565229.8597400198,
        "Argument of Periapsis(deg)": 0.01777750245507308,
        "Eccentricity": 0.0,
        "Inclination(deg)": 53.0,
        "Latitude(deg)": -36.84257489525702,
        "Longitude(deg)": -177.9657918904306,
        "Mean Anomaly(deg)": 228.33199138139247,
        "RAAN(deg)": 69.97354272604889,
        "Satellite Name": "Starlink Shell 1 320",
        "Satellite Number": 320,
        "Semi-Major Axis(m)": 6931778.249405717,
        "Time(s)": 510
    },
    {
        "Altitude(m)": 565398.9125843876,
        "Argument of Periapsis(deg)": 0.018126080934584315,
        "Eccentricity": 0.0,
        "Inclination(deg)": 53.0,
        "Latitude(deg)": -37.25564737110092,
        "Longitude(deg)": -177.41869394924785,
        "Mean Anomaly(deg)": 228.9588225849491,
        "RAAN(deg)": 69.97302395597141,
        "Satellite Name": "Starlink Shell 1 320",
        "Satellite Number": 320,
        "Semi-Major Axis(m)": 6931778.249405717,
        "Time(s)": 520
    },
    {
        "Altitude(m)": 565567.0229161364,
        "Argument of Periapsis(deg)": 0.018474659414095554,
        "Eccentricity": 0.0,
        "Inclination(deg)": 53.0,
        "Latitude(deg)": -37.665725081781645,
        "Longitude(deg)": -176.86518015653564,
        "Mean Anomaly(deg)": 229.58565378850588,
        "RAAN(deg)": 69.97250518589394,
        "Satellite Name": "Starlink Shell 1 320",
        "Satellite Number": 320,
        "Semi-Major Axis(m)": 6931778.249405717,
        "Time(s)": 530
    },
    {
        "Altitude(m)": 565734.1257665292,
        "Argument of Periapsis(deg)": 0.018823237893606792,
        "Eccentricity": 0.0,
        "Inclination(deg)": 53.0,
        "Latitude(deg)": -38.07273197000599,
        "Longitude(deg)": -176.3051314920027,
        "Mean Anomaly(deg)": 230.21248499206268,
        "RAAN(deg)": 69.97198641581647,
        "Satellite Name": "Starlink Shell 1 320",
        "Satellite Number": 320,
        "Semi-Major Axis(m)": 6931778.249405717,
        "Time(s)": 540
    },
    {
        "Altitude(m)": 565900.1564704933,
        "Argument of Periapsis(deg)": 0.019171816373118027,
        "Eccentricity": 0.0,
        "Inclination(deg)": 53.0,
        "Latitude(deg)": -38.47659028185218,
        "Longitude(deg)": -175.73842892796702,
        "Mean Anomaly(deg)": 230.83931619561932,
        "RAAN(deg)": 69.971467645739,
        "Satellite Name": "Starlink Shell 1 320",
        "Satellite Number": 320,
        "Semi-Major Axis(m)": 6931778.249405717,
        "Time(s)": 550
    },
    {
        "Altitude(m)": 566065.0506953864,
        "Argument of Periapsis(deg)": 0.019520394852629266,
        "Eccentricity": 0.0,
        "Inclination(deg)": 53.0,
        "Latitude(deg)": -38.877220542456975,
        "Longitude(deg)": -175.16495308417512,
        "Mean Anomaly(deg)": 231.46614739917607,
        "RAAN(deg)": 69.97094887566152,
        "Satellite Name": "Starlink Shell 1 320",
        "Satellite Number": 320,
        "Semi-Major Axis(m)": 6931778.249405717,
        "Time(s)": 560
    }
]